#dP2024  9 16 18  0  0.00000000      96 __u+U IGS20 EXT  IAC
## 2332 151200.00000000   900.00000000 60569 0.7500000000000
+   53   G02G03G04G05G06G07G08G09G10G11G12G13G14G15G16G17G18
+        G19G20G21G22G23G24G25G26G27G28G29G30G31G32R01R02R03
+        R04R05R07R08R09R11R12R14R15R16R17R18R19R20R21R22R24
+        R25R26  0  0  0  0  0  0  0  0  0  0  0  0  0  0  0
+          0  0  0  0  0  0  0  0  0  0  0  0  0  0  0  0  0
++         7  6  7  7  8  7  7  7  7  9  7  8  5  6  6  6 10
++         6  8  7  7  7  7  8  7  8  8  7  8  7  7  8  7  8
++         7  8  8  8  9  8  6  9  8  8  8  7  8  9  8  6  8
++         7  8  0  0  0  0  0  0  0  0  0  0  0  0  0  0  0
++         0  0  0  0  0  0  0  0  0  0  0  0  0  0  0  0  0
%c M  cc GPS ccc cccc cccc cccc cccc ccccc ccccc ccccc ccccc
%c cc cc ccc ccc cccc cccc cccc cccc ccccc ccccc ccccc ccccc
%f  0.0000000  0.000000000  0.00000000000  0.000000000000000
%f  0.0000000  0.000000000  0.00000000000  0.000000000000000
%i    0    0    0    0      0      0      0      0         0
%i    0    0    0    0      0      0      0      0         0
/* IAC                                ULTRA-RAPID PREDICTION
/* S/V CLOCKS ARE ALIGNED TO GNSS TIME                      
/* G:C1WC2W R:C1PC2P E:C1XC5X C:C2IC6I J:C1CC2S             
/* PCV:IGS20_2317 OL/AL:FES2004  NONE     YN ORB:CoN CLK:CoN
*  2024 09 17  9  0  0.00000000
PG02  22672.168476  13152.030828   5746.487826   -356.303966
PG03  13629.602705   5484.183277  21964.804820    540.584025
PG04  23948.924316   2075.185745  11468.737066    445.232403
PG05  -6720.493371 -20660.542912 -15414.747427   -186.867140
PG06   2958.434195 -16273.410865  20821.690090     25.090005
PG07  18981.122272    125.866238 -18232.161282    -36.897758
PG08  16011.639581   9217.378496 -19346.598692    355.302425
PG09  25586.477535  -7056.219440   1559.186478    360.075159
PG10 -10361.157091  23216.052155  -6846.159491   -128.016536
PG11 -10222.929982 -21877.698190  11170.056772   -735.476762
PG12 -12256.458387  -9990.854531  21065.957075   -538.663174
PG13  -7152.302896 -13934.078393 -21709.102309    676.926200
PG14  13112.771610 -20565.752290 -10191.097189    497.460329
PG15 -17106.431020  -7701.454436 -19382.541695    205.253294
PG16   1614.914787  23182.597243 -12774.623671   -178.786943
PG17  18239.175678 -13988.270079  13880.418112    624.303762
PG18 -18134.276886    613.218734 -19454.739926   -653.800814
PG19  10310.528836 -15158.650901  18908.761974    539.143142
PG20  -1851.933144 -26126.343413  -4800.024957    370.557822
PG21  21314.085057  16805.487639     70.771825    101.590668
PG22   9721.650390 -24799.973276  -1733.763084    -62.662448
PG23 -14830.516205  13143.334378 -17544.736855    322.010426
PG24 -22042.124174 -14940.720320   2427.594550   -486.612628
PG25 -15907.736587   3810.697551  20535.651221    499.625904
PG26  -4016.791681  26044.875018    -51.631830     77.013868
PG27   4532.297885  14681.153328 -21956.502305    -33.866410
PG28  -4855.906312  15384.933654  21086.953074   -414.185280
PG29 -26177.345501   2769.634302   3982.596341   -577.315031
PG30  11721.668282 -10465.529461 -21268.579242   -319.726656
PG31   6194.474785  20878.564933  14707.008792   -224.593648
PG32 -16319.226607  15369.068796  14301.379623   -596.345928
PR01 -20397.411474  15176.270862  -2127.761401     98.070399
PR02 -12037.799158  17286.040149  14370.504309    -24.701315
PR03   3958.030880  10491.731347  22945.965875    107.724635
PR04  17079.883648  -1831.630564  18887.672238    255.084862
PR05  21389.008012 -13101.488897   4727.104799    137.773442
PR07  -4336.526769 -10194.958445 -22945.517003     91.068877
PR08 -17218.725424   2111.102647 -18629.808328     -6.392124
PR09    934.929553 -23597.441375  -9511.118440    209.608045
PR11 -11130.045846 -11475.068270  19883.621422     11.621166
PR12  -9174.327683   9870.594450  21683.383843     44.940154
PR14   7037.478204  23327.201358  -7571.009185     26.926137
PR15  11315.601847   9825.944257 -20621.335400     75.798263
PR16   9042.981718  -9672.226114 -21781.443137     29.195613
PR17  15946.124090  13887.066892 -14216.513219    122.742271
PR18  23585.714666   9647.235279   1549.757915    162.455713
PR19  20294.025598   2144.534675  15296.846265   -291.669356
PR20   2485.995781 -10309.707442  23208.589219   -119.196635
PR21 -15328.906595 -14041.837315  14812.116810   -135.170138
PR22 -23465.824270  -9625.122633  -2672.547901     44.857680
PR24  -1638.654582  11059.005329 -22905.915098    -72.358576
PR25 -15658.851556 -14655.021276  13839.734327    -99.593197
PR26 -16337.779122   1017.726145 -19553.853847     30.261986
*  2024 09 17  9 15  0.00000000
PG02  22902.068199  13578.570138   2953.376521   -356.296783
PG03  13081.823494   7942.761921  21555.216319    540.595871
PG04  22620.253963   2656.368450  13798.352430    445.238805
PG05  -6303.213004 -22225.315163 -13227.742068   -186.868313
PG06   4766.922652 -14676.677231  21667.752579     25.066474
PG07  20426.665784   1623.684532 -16612.292410    -36.893688
PG08  13935.482901  10081.114431 -20457.665798    355.314020
PG09  25342.569510  -6699.760463   4381.676579    360.089647
PG10 -10356.079240  22224.528876  -9559.012081   -128.027668
PG11  -9085.078477 -21030.532421  13531.097933   -735.480481
PG12 -11529.057208 -12301.554118  20252.995657   -538.665727
PG13  -4742.895990 -14378.414827 -22059.487519    676.928043
PG14  13078.581888 -19218.496744 -12593.495825    497.468014
PG15 -15213.877849  -8796.053456 -20478.393283    205.257196
PG16   1015.152769  24349.965816 -10331.703827   -178.777771
PG17  19624.811949 -14174.799062  11547.241238    624.293496
PG18 -19629.262414   -912.604060 -17954.775797   -653.802743
PG19  12409.459314 -15452.840645  17319.667293    539.147562
PG20  -1584.261756 -26514.684373  -1999.365494    370.557486
PG21  21057.589977  16830.994583  -2719.598113    101.590004
PG22   9830.026037 -24347.646697  -4541.290356    -62.665811
PG23 -14576.683396  11047.591191 -19146.705184    322.017989
PG24 -21999.521854 -15279.312567   -348.359788   -486.612253
PG25 -15525.095296   1375.876592  21140.846512    499.625942
PG26  -4364.206559  25826.807146   2758.334114     77.006151
PG27   2210.021803  15433.399470 -21756.577925    -33.866467
PG28  -6760.759696  13850.376172  21619.263744   -414.197722
PG29 -25630.080003   2413.217343   6760.467781   -577.312852
PG30  13536.543805  -8811.958307 -20964.166850   -319.720220
PG31   4697.614813  19773.552790  16664.422794   -224.593201
PG32 -17787.732660  15650.257430  12011.339494   -596.342578
PR01 -19955.654935  14988.068152  -5297.298681     98.071563
PR02 -13207.759090  18395.080543  11706.879802    -24.701478
PR03   1816.912565  12272.564386  22317.112887    107.725351
PR04  15118.890815   -392.186218  20569.232795    255.086509
PR05  20672.714295 -12758.764508   7831.456347    137.773952
PR07  -2176.989536 -11986.411102 -22384.752353     91.069531
PR08 -15287.541518    652.661699 -20342.560434     -6.392021
PR09   1122.396057 -22256.867666 -12311.595243    209.610005
PR11 -11609.871188 -13766.584458  18069.376645     11.620238
PR12  -9587.411978   7179.885759  22547.356283     44.940519
PR14   7279.307192  24041.569154  -4487.787930     26.926192
PR15  11781.538422  12231.714335 -19013.586828     75.797950
PR16   9466.875333  -6960.753870 -22622.908866     29.195899
PR17  14216.888497  13066.958673 -16626.711492    122.745314
PR18  23653.226882   9450.875952  -1686.429769    162.457389
PR19  21948.849701   2681.029155  12706.433265   -291.670590
PR20   5109.413368  -9146.810950  23269.030218   -119.197188
PR21 -13551.191953 -13173.770584  17154.502965   -135.173009
PR22 -23648.745241  -9542.564895    536.898204     44.849368
PR24  -4285.487807  10028.602834 -23039.701143    -72.359928
PR25 -14000.944628 -13814.584051  16266.567781    -99.590762
PR26 -14348.481492   -515.818220 -21072.745554     30.275516
EOF
